KAITUO 1B               
1 40912U 15049P   18034.39469582  .00000932  00000-0  48440-4 0  9995
2 40912  97.4504  43.6404 0017176 113.9719 351.7404 15.18415570131366
TIANWANG 1C (TW-1C)     
1 40926U 15051B   18034.52971505  .00005948  00000-0  11982-3 0  9993
2 40926  97.2018  77.5697 0012006  55.9056  82.4663 15.46877425132633
TIANWANG 1B (TW-1B)     
1 40927U 15051C   18034.50612875  .00005586  00000-0  11724-3 0  9996
2 40927  97.2108  77.4520 0012418  64.6224  45.2611 15.45697844132554
TIANWANG 1A (TW-1A)     
1 40928U 15051D   18034.06987999  .00002426  00000-0  67085-4 0  9992
2 40928  97.2019  70.6578 0014369  87.0715 330.1290 15.37890632132162
LAPAN-A2 (IO-86)        
1 40931U 15052B   18032.36058954  .00000757  00000-0  16439-4 0  9990
2 40931   5.9988  38.5755 0013181 249.6522 110.2637 14.76563983126893
LQSAT                   
1 40958U 15057A   18034.54998770  .00000005  00000-0  85801-5 0  9991
2 40958  97.9548 110.5432 0019383  48.9062 311.3821 14.73013759125174
CHUBUSAT-2              
1 41338U 16012B   18033.48994611  .00000311  00000-0  17570-4 0  9995
2 41338  31.0038  89.3963 0013832 179.6620 180.4026 14.99912932107594
CHUBUSAT-3              
1 41339U 16012C   18034.45228729  .00000255  00000-0  13090-4 0  9994
2 41339  31.0090  82.0717 0013792 196.6263 163.3932 15.00104904107723
OUFTI-1                 
1 41458U 16025C   18034.55111934  .00001922  00000-0  10493-3 0  9995
2 41458  98.1560  90.1759 0170423 235.2064 123.3023 15.04216732 97341
E-ST@R-II               
1 41459U 16025D   18034.40256067  .00000983  00000-0  56433-4 0  9998
2 41459  98.1566  89.9101 0170707 236.1606 122.3259 15.03979701 97310
AAUSAT 4                
1 41460U 16025E   18034.50105639  .00001997  00000-0  10855-3 0  9992
2 41460  98.1475  90.3202 0162822 232.8435 125.7860 15.05233159 97374
NUSAT 1 (LO-87)         
1 41557U 16033B   18034.25863003  .00001056  00000-0  41404-4 0  9997
2 41557  97.4455 118.6936 0012288 271.1326  88.8506 15.27959918 93705
BEESAT-4                
1 41619U 16040W   18034.40195078  .00001073  00000-0  50447-4 0  9997
2 41619  97.4333  99.3100 0011176 347.3126  12.7827 15.21711013 77740
PRATHAM                 
1 41783U 16059A   18033.73606988  .00000041  00000-0  17387-4 0  9991
2 41783  98.1369  97.3439 0034245 155.8725 204.4090 14.62897844 72301
ALSAT 1N                
1 41789U 16059G   18034.48964570  .00000062  00000-0  20962-4 0  9990
2 41789  98.1369  99.0401 0029132 145.6261 214.6839 14.64123835 72450
NAYIF-1 (EO-88)         
1 42017U 17008BX  18033.90893996  .00001198  00000-0  52399-4 0  9999
2 42017  97.4661  99.6814 0007855 125.0026 235.1950 15.23998453 53616
LILACSAT-1              
1 42725U 98067ME  18034.18966315  .00015692  00000-0  17199-3 0  9998
2 42725  51.6383 318.3863 0006069  93.3303 266.8385 15.63430271 39521
MAX VALIER SAT          
1 42778U 17036P   18033.92059223  .00000754  00000-0  37043-4 0  9999
2 42778  97.4224  95.7543 0013034 173.0356 187.1063 15.21010794 34099
FOX-1B (AO-91)          
1 43017U 17073E   18033.82597460  .00000961  00000-0  81268-4 0  9994
2 43017  97.6991 330.6448 0260296 349.3075  10.2664 14.77877921 11264
FOX-1D (AO-92)          
1 43137U 18004AC  18033.82999804  .00000827  00000-0  38903-4 0  9999
2 43137  97.5526  96.0557 0009005 201.6507 158.4350 15.22400642  3275
